[{"OBJECT_NAME":"ONEWEB-0274","OBJECT_ID":"2021-060AB","EPOCH":"2026-03-09T21:53:58.822368","MEAN_MOTION":13.16593541,"ECCENTRICITY":0.00013385,"INCLINATION":87.8994,"RA_OF_ASC_NODE":248.5411,"ARG_OF_PERICENTER":103.9093,"MEAN_ANOMALY":256.2187,"EPHEMERIS_TYPE":0,"CLASSIFICATION_TYPE":"U","NORAD_CAT_ID":48992,"ELEMENT_SET_NO":999,"REV_AT_EPOCH":22656,"BSTAR":-0.00024860459,"MEAN_MOTION_DOT":-8.2e-7,"MEAN_MOTION_DDOT":0},{"OBJECT_NAME":"THORAD AGENA D DEB","OBJECT_ID":"1970-025NV","EPOCH":"2026-03-09T06:54:07.230816","MEAN_MOTION":13.07361468,"ECCENTRICITY":0.0272367,"INCLINATION":101.6091,"RA_OF_ASC_NODE":349.5941,"ARG_OF_PERICENTER":7.122,"MEAN_ANOMALY":142.7899,"EPHEMERIS_TYPE":0,"CLASSIFICATION_TYPE":"U","NORAD_CAT_ID":14469,"ELEMENT_SET_NO":999,"REV_AT_EPOCH":13285,"BSTAR":-0.00016035393,"MEAN_MOTION_DOT":-1.16e-6,"MEAN_MOTION_DDOT":0}]
